{"fetched_at":"2026-03-29T02:12:04Z","count":15717,"tles":[{"name":"ZHONGXING-9","line1":"1 33051U 08028A   26086.84997753 -.00000267  00000+0  00000+0 0  9998","line2":"2 33051   0.5604  86.3926 0007923 257.1679 240.0597  1.00268991 65229","category":"Other"}]}